{"type": "FeatureCollection", "features": [ {"type": "Feature", "properties": {"norad_id": 36061, "name": "COSMOS 2251 DEB", "group": "cosmos-2251-debris", "lat": -39.19449805892906, "lon": 2.347143117211305, "alt_km": 807.8162865335307, "timestamp": "2025-12-03T22:42:33.029659+00:00", "meta": {"OBJECT_NAME": "COSMOS 2251 DEB", "OBJECT_ID": "1993-036AXY", "EPOCH": "2025-12-03T11:10:42.745728", "MEAN_MOTION": 14.33684689, "ECCENTRICITY": 0.0036872, "INCLINATION": 74.0244, "RA_OF_ASC_NODE": 16.7348, "ARG_OF_PERICENTER": 107.6281, "MEAN_ANOMALY": 252.8902, "EPHEMERIS_TYPE": 0, "CLASSIFICATION_TYPE": "U", "NORAD_CAT_ID": 36061, "ELEMENT_SET_NO": 999, "REV_AT_EPOCH": 64971, "BSTAR": 0.00039803, "MEAN_MOTION_DOT": 1.087e-05, "MEAN_MOTION_DDOT": 0}, "tle": {"line1": "1 36061U 93036AXY 25337.46577252  .00001087  00000+0  39803-3 0  9996", "line2": "2 36061  74.0244  16.7348 0036872 107.6281 252.8902 14.33684689649716"}}, "geometry": {"type": "Point", "coordinates": [2.347143117211305, -39.19449805892906]}}, {"type": "Feature", "properties": {"norad_id": 36073, "name": "COSMOS 2251 DEB", "group": "cosmos-2251-debris", "lat": 15.372984670121635, "lon": -16.804985628967472, "alt_km": 761.6758846044095, "timestamp": "2025-12-03T22:42:33.029668+00:00", "meta": {"OBJECT_NAME": "COSMOS 2251 DEB", "OBJECT_ID": "1993-036AYL", "EPOCH": "2025-12-02T18:11:25.029312", "MEAN_MOTION": 14.34931351, "ECCENTRICITY": 0.00234518, "INCLINATION": 74.0318, "RA_OF_ASC_NODE": 340.8572, "ARG_OF_PERICENTER": 51.9571, "MEAN_ANOMALY": 308.3693, "EPHEMERIS_TYPE": 0, "CLASSIFICATION_TYPE": "U", "NORAD_CAT_ID": 36073, "ELEMENT_SET_NO": 999, "REV_AT_EPOCH": 70064, "BSTAR": 0.00029028111, "MEAN_MOTION_DOT": 8.02e-06, "MEAN_MOTION_DDOT": 0}, "tle": {"line1": "1 36073U 93036AYL 25336.75792858  .00000802  00000+0  29028-3 0  9993", "line2": "2 36073  74.0318 340.8572 0023451  51.9571 308.3693 14.34931351700649"}}, "geometry": {"type": "Point", "coordinates": [-16.804985628967472, 15.372984670121635]}}, {"type": "Feature", "properties": {"norad_id": 36074, "name": "COSMOS 2251 DEB", "group": "cosmos-2251-debris", "lat": -53.49468978273033, "lon": -160.30320167671425, "alt_km": 777.855103790178, "timestamp": "2025-12-03T22:42:33.029677+00:00", "meta": {"OBJECT_NAME": "COSMOS 2251 DEB", "OBJECT_ID": "1993-036AYM", "EPOCH": "2025-12-03T11:38:27.519072", "MEAN_MOTION": 14.43635924, "ECCENTRICITY": 0.0042295, "INCLINATION": 73.9916, "RA_OF_ASC_NODE": 357.7317, "ARG_OF_PERICENTER": 92.4077, "MEAN_ANOMALY": 268.1923, "EPHEMERIS_TYPE": 0, "CLASSIFICATION_TYPE": "U", "NORAD_CAT_ID": 36074, "ELEMENT_SET_NO": 999, "REV_AT_EPOCH": 85776, "BSTAR": 0.0012217, "MEAN_MOTION_DOT": 4.165e-05, "MEAN_MOTION_DDOT": 0}, "tle": {"line1": "1 36074U 93036AYM 25337.48504073  .00004165  00000+0  12217-2 0  9992", "line2": "2 36074  73.9916 357.7317 0042295  92.4077 268.1923 14.43635924857766"}}, "geometry": {"type": "Point", "coordinates": [-160.30320167671425, -53.49468978273033]}}, {"type": "Feature", "properties": {"norad_id": 36366, "name": "COSMOS 2251 DEB", "group": "cosmos-2251-debris", "lat": 38.60589398032713, "lon": 95.92844403852774, "alt_km": 842.994992376719, "timestamp": "2025-12-03T22:42:33.029686+00:00", "meta": {"OBJECT_NAME": "COSMOS 2251 DEB", "OBJECT_ID": "1993-036AYT", "EPOCH": "2025-12-02T05:51:07.218720", "MEAN_MOTION": 14.33192884, "ECCENTRICITY": 0.0091167, "INCLINATION": 74.0653, "RA_OF_ASC_NODE": 292.2194, "ARG_OF_PERICENTER": 322.5756, "MEAN_ANOMALY": 36.9067, "EPHEMERIS_TYPE": 0, "CLASSIFICATION_TYPE": "U", "NORAD_CAT_ID": 36366, "ELEMENT_SET_NO": 999, "REV_AT_EPOCH": 86138, "BSTAR": 0.0027816, "MEAN_MOTION_DOT": 7.987e-05, "MEAN_MOTION_DDOT": 0}, "tle": {"line1": "1 36366U 93036AYT 25336.24383355  .00007987  00000+0  27816-2 0  9993", "line2": "2 36366  74.0653 292.2194 0091167 322.5756  36.9067 14.33192884861384"}}, "geometry": {"type": "Point", "coordinates": [95.92844403852774, 38.60589398032713]}}, {"type": "Feature", "properties": {"norad_id": 36367, "name": "COSMOS 2251 DEB", "group": "cosmos-2251-debris", "lat": -38.58679106526634, "lon": 79.39826733428002, "alt_km": 978.5455877085233, "timestamp": "2025-12-03T22:42:33.029697+00:00", "meta": {"OBJECT_NAME": "COSMOS 2251 DEB", "OBJECT_ID": "1993-036AYU", "EPOCH": "2025-12-01T12:28:20.175744", "MEAN_MOTION": 13.86234419, "ECCENTRICITY": 0.02628434, "INCLINATION": 74.101, "RA_OF_ASC_NODE": 250.3439, "ARG_OF_PERICENTER": 325.6692, "MEAN_ANOMALY": 32.7682, "EPHEMERIS_TYPE": 0, "CLASSIFICATION_TYPE": "U", "NORAD_CAT_ID": 36367, "ELEMENT_SET_NO": 999, "REV_AT_EPOCH": 57374, "BSTAR": 0.0014810929, "MEAN_MOTION_DOT": 2.22e-05, "MEAN_MOTION_DDOT": 0}, "tle": {"line1": "1 36367U 93036AYU 25335.51967796  .00002220  00000+0  14811-2 0  9996", "line2": "2 36367  74.1010 250.3439 0262843 325.6692  32.7682 13.86234419573749"}}, "geometry": {"type": "Point", "coordinates": [79.39826733428002, -38.58679106526634]}}, {"type": "Feature", "properties": {"norad_id": 36369, "name": "COSMOS 2251 DEB", "group": "cosmos-2251-debris", "lat": 30.991497255934256, "lon": -102.0291415911496, "alt_km": 640.5395444328024, "timestamp": "2025-12-03T22:42:33.029711+00:00", "meta": {"OBJECT_NAME": "COSMOS 2251 DEB", "OBJECT_ID": "1993-036AYW", "EPOCH": "2025-12-03T00:51:19.677888", "MEAN_MOTION": 14.73251105, "ECCENTRICITY": 0.00123913, "INCLINATION": 74.0302, "RA_OF_ASC_NODE": 89.6499, "ARG_OF_PERICENTER": 171.9331, "MEAN_ANOMALY": 188.2043, "EPHEMERIS_TYPE": 0, "CLASSIFICATION_TYPE": "U", "NORAD_CAT_ID": 36369, "ELEMENT_SET_NO": 999, "REV_AT_EPOCH": 85779, "BSTAR": 0.0024127468, "MEAN_MOTION_DOT": 0.00015612, "MEAN_MOTION_DDOT": 0}, "tle": {"line1": "1 36369U 93036AYW 25337.03564442  .00015612  00000+0  24127-2 0  9998", "line2": "2 36369  74.0302  89.6499 0012391 171.9331 188.2043 14.73251105857792"}}, "geometry": {"type": "Point", "coordinates": [-102.0291415911496, 30.991497255934256]}}, {"type": "Feature", "properties": {"norad_id": 36371, "name": "COSMOS 2251 DEB", "group": "cosmos-2251-debris", "lat": 27.08734284076105, "lon": -9.810735529367298, "alt_km": 655.6567084829612, "timestamp": "2025-12-03T22:42:33.029725+00:00", "meta": {"OBJECT_NAME": "COSMOS 2251 DEB", "OBJECT_ID": "1993-036AYY", "EPOCH": "2025-11-30T20:32:02.763456", "MEAN_MOTION": 14.70225787, "ECCENTRICITY": 0.00108974, "INCLINATION": 74.0137, "RA_OF_ASC_NODE": 184.6205, "ARG_OF_PERICENTER": 224.8098, "MEAN_ANOMALY": 135.2194, "EPHEMERIS_TYPE": 0, "CLASSIFICATION_TYPE": "U", "NORAD_CAT_ID": 36371, "ELEMENT_SET_NO": 999, "REV_AT_EPOCH": 71270, "BSTAR": 0.0018017068, "MEAN_MOTION_DOT": 0.00010857, "MEAN_MOTION_DDOT": 0}, "tle": {"line1": "1 36371U 93036AYY 25334.85558754  .00010857  00000+0  18017-2 0  9994", "line2": "2 36371  74.0137 184.6205 0010897 224.8098 135.2194 14.70225787712703"}}, "geometry": {"type": "Point", "coordinates": [-9.810735529367298, 27.08734284076105]}}, {"type": "Feature", "properties": {"norad_id": 36379, "name": "COSMOS 2251 DEB", "group": "cosmos-2251-debris", "lat": -36.67602488367596, "lon": -49.33381590194664, "alt_km": 799.152489307854, "timestamp": "2025-12-03T22:42:33.029741+00:00", "meta": {"OBJECT_NAME": "COSMOS 2251 DEB", "OBJECT_ID": "1993-036AZG", "EPOCH": "2025-12-02T08:45:01.281024", "MEAN_MOTION": 14.36049037, "ECCENTRICITY": 0.00444977, "INCLINATION": 74.0124, "RA_OF_ASC_NODE": 325.9012, "ARG_OF_PERICENTER": 97.8988, "MEAN_ANOMALY": 330.8208, "EPHEMERIS_TYPE": 0, "CLASSIFICATION_TYPE": "U", "NORAD_CAT_ID": 36379, "ELEMENT_SET_NO": 999, "REV_AT_EPOCH": 64679, "BSTAR": 0.0003527666, "MEAN_MOTION_DOT": 1.012e-05, "MEAN_MOTION_DDOT": 0}, "tle": {"line1": "1 36379U 93036AZG 25336.36459816  .00001012  00000+0  35277-3 0  9990", "line2": "2 36379  74.0124 325.9012 0044497  97.8988 330.8208 14.36049037646790"}}, "geometry": {"type": "Point", "coordinates": [-49.33381590194664, -36.67602488367596]}}, {"type": "Feature", "properties": {"norad_id": 36385, "name": "COSMOS 2251 DEB", "group": "cosmos-2251-debris", "lat": -21.08842019037124, "lon": -1.9048902403447634, "alt_km": 740.8156654935801, "timestamp": "2025-12-03T22:42:33.029765+00:00", "meta": {"OBJECT_NAME": "COSMOS 2251 DEB", "OBJECT_ID": "1993-036AZN", "EPOCH": "2025-12-02T19:41:49.805376", "MEAN_MOTION": 14.72268382, "ECCENTRICITY": 0.01411536, "INCLINATION": 73.969, "RA_OF_ASC_NODE": 173.928, "ARG_OF_PERICENTER": 350.6385, "MEAN_ANOMALY": 9.2157, "EPHEMERIS_TYPE": 0, "CLASSIFICATION_TYPE": "U", "NORAD_CAT_ID": 36385, "ELEMENT_SET_NO": 999, "REV_AT_EPOCH": 84956, "BSTAR": 0.0016407111, "MEAN_MOTION_DOT": 0.00012116, "MEAN_MOTION_DDOT": 0}, "tle": {"line1": "1 36385U 93036AZN 25336.82071534  .00012116  00000+0  16407-2 0  9995", "line2": "2 36385  73.9690 173.9280 0141153 350.6385   9.2157 14.72268382849565"}}, "geometry": {"type": "Point", "coordinates": [-1.9048902403447634, -21.08842019037124]}}, {"type": "Feature", "properties": {"norad_id": 36420, "name": "COSMOS 2251 DEB", "group": "cosmos-2251-debris", "lat": 4.406282353793018, "lon": 110.38247465335292, "alt_km": 782.1527274990895, "timestamp": "2025-12-03T22:42:33.029775+00:00", "meta": {"OBJECT_NAME": "COSMOS 2251 DEB", "OBJECT_ID": "1993-036AZT", "EPOCH": "2025-12-03T05:28:58.353024", "MEAN_MOTION": 14.3688527, "ECCENTRICITY": 0.0017673, "INCLINATION": 74.0372, "RA_OF_ASC_NODE": 292.9652, "ARG_OF_PERICENTER": 23.016, "MEAN_ANOMALY": 40.8577, "EPHEMERIS_TYPE": 0, "CLASSIFICATION_TYPE": "U", "NORAD_CAT_ID": 36420, "ELEMENT_SET_NO": 999, "REV_AT_EPOCH": 84900, "BSTAR": 0.00024398, "MEAN_MOTION_DOT": 6.97e-06, "MEAN_MOTION_DDOT": 0}, "tle": {"line1": "1 36420U 93036AZT 25337.22845316  .00000697  00000+0  24398-3 0  9997", "line2": "2 36420  74.0372 292.9652 0017673  23.0160  40.8577 14.36885270849007"}}, "geometry": {"type": "Point", "coordinates": [110.38247465335292, 4.406282353793018]}}]}